$$SOE
2460147.500000000, A.D. 2023-Jul-22 00:00:00.0000, -7.599068492232004E+07, -3.518509452355751E+08, -1.118502579368424E+07,
2460154.500000000, A.D. 2023-Jul-29 00:00:00.0000, -6.410088358474656E+07, -3.528099513562138E+08, -1.055996730687726E+07,
2460161.500000000, A.D. 2023-Aug-05 00:00:00.0000, -5.214375757172047E+07, -3.533980141192507E+08, -9.923805651708752E+06,
2460168.500000000, A.D. 2023-Aug-12 00:00:00.0000, -4.013124390428279E+07, -3.536101995850497E+08, -9.277088358746603E+06,
2460175.500000000, A.D. 2023-Aug-19 00:00:00.0000, -2.807563005151229E+07, -3.534419557696780E+08, -8.620389660297394E+06,
2460182.500000000, A.D. 2023-Aug-26 00:00:00.0000, -1.598954399532931E+07, -3.528891381320016E+08, -7.954310460747525E+06,
2460189.500000000, A.D. 2023-Sep-02 00:00:00.0000, -3.885942433233262E+06, -3.519480353214227E+08, -7.279478213235080E+06,
2460196.500000000, A.D. 2023-Sep-09 00:00:00.0000, 8.221903002372943E+06, -3.506153950879799E+08, -6.596546702055797E+06,
2460203.500000000, A.D. 2023-Sep-16 00:00:00.0000, 2.032042175130830E+07, -3.488884502617787E+08, -5.906195743766114E+06,
2460210.500000000, A.D. 2023-Sep-23 00:00:00.0000, 3.239576303805410E+07, -3.467649443508870E+08, -5.209130814734086E+06,
2460217.500000000, A.D. 2023-Sep-30 00:00:00.0000, 4.443381699890862E+07, -3.442431553895274E+08, -4.506082470123649E+06,
2460224.500000000, A.D. 2023-Oct-07 00:00:00.0000, 5.642023590404343E+07, -3.413219183882736E+08, -3.797805376918301E+06,
2460231.500000000, A.D. 2023-Oct-14 00:00:00.0000, 6.834045653272167E+07, -3.380006494965068E+08, -3.085077322218284E+06,
2460238.500000000, A.D. 2023-Oct-21 00:00:00.0000, 8.017972693102004E+07, -3.342793700655490E+08, -2.368698357894525E+06,
2460245.500000000, A.D. 2023-Oct-28 00:00:00.0000, 9.192313610677236E+07, -3.301587281385064E+08, -1.649489762833789E+06,
2460252.500000000, A.D. 2023-Nov-04 00:00:00.0000, 1.035556453676680E+08, -3.256400179170673E+08, -9.282927686364800E+05,
2460259.500000000, A.D. 2023-Nov-11 00:00:00.0000, 1.150621214124397E+08, -3.207251975813417E+08, -2.059671128656864E+05,
2460266.500000000, A.D. 2023-Nov-18 00:00:00.0000, 1.264273713019935E+08, -3.154169053030789E+08, 5.166105546354353E+05,
2460273.500000000, A.D. 2023-Nov-25 00:00:00.0000, 1.376361792642643E+08, -3.097184732078626E+08, 1.238548405830160E+06,
2460280.500000000, A.D. 2023-Dec-02 00:00:00.0000, 1.486733452156902E+08, -3.036339390799300E+08, 1.958941301919341E+06,
2460287.500000000, A.D. 2023-Dec-09 00:00:00.0000, 1.595237249074141E+08, -2.971680556596832E+08, 2.676872776772186E+06,
2460294.500000000, A.D. 2023-Dec-16 00:00:00.0000, 1.701722717901055E+08, -2.903262973278622E+08, 3.391417104266614E+06,
2460301.500000000, A.D. 2023-Dec-23 00:00:00.0000, 1.806040807263635E+08, -2.831148633147886E+08, 4.101641465756103E+06,
2460308.500000000, A.D. 2023-Dec-30 00:00:00.0000, 1.908044319647631E+08, -2.755406762306009E+08, 4.806608416545942E+06,
2460315.500000000, A.D. 2024-Jan-06 00:00:00.0000, 2.007588333336455E+08, -2.676113781412994E+08, 5.505378608956799E+06,
2460322.500000000, A.D. 2024-Jan-13 00:00:00.0000, 2.104530635399805E+08, -2.593353258848397E+08, 6.197013319221169E+06,
2460329.500000000, A.D. 2024-Jan-20 00:00:00.0000, 2.198732174959738E+08, -2.507215824620846E+08, 6.880576902848467E+06,
2460336.500000000, A.D. 2024-Jan-27 00:00:00.0000, 2.290057513306482E+08, -2.417799038041716E+08, 7.555139401616499E+06,
2460343.500000000, A.D. 2024-Feb-03 00:00:00.0000, 2.378375263336193E+08, -2.325207218519425E+08, 8.219779246516332E+06,
2460350.500000000, A.D. 2024-Feb-10 00:00:00.0000, 2.463558517788725E+08, -2.229551242603235E+08, 8.873585988955602E+06,
2460357.500000000, A.D. 2024-Feb-17 00:00:00.0000, 2.545485264375019E+08, -2.130948307780978E+08, 9.515663029008687E+06,
2460364.500000000, A.D. 2024-Feb-24 00:00:00.0000, 2.624038784897912E+08, -2.029521663841450E+08, 1.014513031907281E+07,
2460371.500000000, A.D. 2024-Mar-02 00:00:00.0000, 2.699108035482579E+08, -1.925400313453941E+08, 1.076112701766764E+07,
2460378.500000000, A.D. 2024-Mar-09 00:00:00.0000, 2.770588006250919E+08, -1.818718684261448E+08, 1.136281405527078E+07,
2460385.500000000, A.D. 2024-Mar-16 00:00:00.0000, 2.838380061545906E+08, -1.709616272510253E+08, 1.194937657248833E+07,
2460392.500000000, A.D. 2024-Mar-23 00:00:00.0000, 2.902392257093074E+08, -1.598237249487787E+08, 1.252002631307228E+07,
2460399.500000000, A.D. 2024-Mar-30 00:00:00.0000, 2.962539609334819E+08, -1.484730033751989E+08, 1.307400415835584E+07,
2460406.500000000, A.D. 2024-Apr-06 00:00:00.0000, 3.018744317327225E+08, -1.369246865752726E+08, 1.361058248634714E+07,
2460413.500000000, A.D. 2024-Apr-13 00:00:00.0000, 3.070935970834260E+08, -1.251943379513922E+08, 1.412906707974468E+07,
2460420.500000000, A.D. 2024-Apr-20 00:00:00.0000, 3.119051733660088E+08, -1.132978147774082E+08, 1.462879887278329E+07,
2460427.500000000, A.D. 2024-Apr-27 00:00:00.0000, 3.163036486084882E+08, -1.012512209513246E+08, 1.510915561752666E+07,
2460434.500000000, A.D. 2024-May-04 00:00:00.0000, 3.202842926758916E+08, -8.907085903511763E+07, 1.556955339512660E+07,
2460441.500000000, A.D. 2024-May-11 00:00:00.0000, 3.238431636291102E+08, -7.677318203706819E+07, 1.600944793571625E+07,
2460448.500000000, A.D. 2024-May-18 00:00:00.0000, 3.269771103536448E+08, -6.437474526789199E+07, 1.642833573660015E+07,
2460455.500000000, A.D. 2024-May-25 00:00:00.0000, 3.296837715344880E+08, -5.189215862153053E+07, 1.682575497253768E+07,
2460462.500000000, A.D. 2024-Jun-01 00:00:00.0000, 3.319615711224715E+08, -3.934203966801587E+07, 1.720128618608051E+07,
2460469.500000000, A.D. 2024-Jun-08 00:00:00.0000, 3.338097106551976E+08, -2.674096789467794E+07, 1.755455273303618E+07,
2460476.500000000, A.D. 2024-Jun-15 00:00:00.0000, 3.352281589763528E+08, -1.410543984093897E+07, 1.788522099202238E+07,
2460483.500000000, A.D. 2024-Jun-22 00:00:00.0000, 3.362176385259687E+08, -1.451824214582942E+06, 1.819300053097173E+07,
2460490.500000000, A.D. 2024-Jun-29 00:00:00.0000, 3.367796062914442E+08, 1.120368094617471E+07, 1.847764428431601E+07,
2460497.500000000, A.D. 2024-Jul-06 00:00:00.0000, 3.369162322884485E+08, 2.384508637224594E+07, 1.873894830393823E+07,
2460504.500000000, A.D. 2024-Jul-13 00:00:00.0000, 3.366303777544357E+08, 3.645664756151601E+07, 1.897675114417053E+07,
2460511.500000000, A.D. 2024-Jul-20 00:00:00.0000, 3.359255713193125E+08, 4.902289966822437E+07, 1.919093316742736E+07,
2460518.500000000, A.D. 2024-Jul-27 00:00:00.0000, 3.348059827582762E+08, 6.152869019762187E+07, 1.938141576411774E+07,
2460525.500000000, A.D. 2024-Aug-03 00:00:00.0000, 3.332763948646169E+08, 7.395920903363535E+07, 1.954816044363481E+07,
2460532.500000000, A.D. 2024-Aug-10 00:00:00.0000, 3.313421738732249E+08, 8.630001572743329E+07, 1.969116779376979E+07,
2460539.500000000, A.D. 2024-Aug-17 00:00:00.0000, 3.290092387442669E+08, 9.853706402976522E+07, 1.981047631925912E+07,
2460546.500000000, A.D. 2024-Aug-24 00:00:00.0000, 3.262840295915197E+08, 1.106567236333955E+08, 1.990616116862101E+07,
2460553.500000000, A.D. 2024-Aug-31 00:00:00.0000, 3.231734756201172E+08, 1.226457990780978E+08, 1.997833274731973E+07,
2460560.500000000, A.D. 2024-Sep-07 00:00:00.0000, 3.196849631780407E+08, 1.344915459800997E+08, 2.002713520735251E+07,
2460567.500000000, A.D. 2024-Sep-14 00:00:00.0000, 3.158263042279404E+08, 1.461816856358763E+08, 2.005274489896622E+07,
2460574.500000000, A.D. 2024-Sep-21 00:00:00.0000, 3.116057034141815E+08, 1.577044184910165E+08, 2.005536901686200E+07,
2460581.500000000, A.D. 2024-Sep-28 00:00:00.0000, 3.070317234379291E+08, 1.690484333448233E+08, 2.003524423582947E+07,
2460588.500000000, A.D. 2024-Oct-05 00:00:00.0000, 3.021132525943531E+08, 1.802029123949184E+08, 1.999263501102728E+07,
2460595.500000000, A.D. 2024-Oct-12 00:00:00.0000, 2.968594742683142E+08, 1.911575352143674E+08, 1.992783182946973E+07,
2460602.500000000, A.D. 2024-Oct-19 00:00:00.0000, 2.912798367778956E+08, 2.019024815151336E+08, 1.984114956118186E+07,
2460609.500000000, A.D. 2024-Oct-26 00:00:00.0000, 2.853840236579854E+08, 2.124284320274287E+08, 1.973292585677600E+07,
2460616.500000000, A.D. 2024-Nov-02 00:00:00.0000, 2.791819247474959E+08, 2.227265674816621E+08, 1.960351956390709E+07,
2460623.500000000, A.D. 2024-Nov-09 00:00:00.0000, 2.726836082650283E+08, 2.327885658524590E+08, 1.945330916275029E+07,
2460630.500000000, A.D. 2024-Nov-16 00:00:00.0000, 2.658992939709866E+08, 2.426065980068315E+08, 1.928269122489266E+07,
2460637.500000000, A.D. 2024-Nov-23 00:00:00.0000, 2.588393275214410E+08, 2.521733218500875E+08, 1.909207889365891E+07,
2460644.500000000, A.D. 2024-Nov-30 00:00:00.0000, 2.515141562689418E+08, 2.614818750699522E+08, 1.888190036937332E+07,
2460651.500000000, A.D. 2024-Dec-07 00:00:00.0000, 2.439343069669924E+08, 2.705258670388676E+08, 1.865259740084262E+07,
2460658.500000000, A.D. 2024-Dec-14 00:00:00.0000, 2.361103647144036E+08, 2.792993712277354E+08, 1.840462395006187E+07,
2460665.500000000, A.D. 2024-Dec-21 00:00:00.0000, 2.280529508278023E+08, 2.877969170125876E+08, 1.813844514451419E+07,
2460672.500000000, A.D. 2024-Dec-28 00:00:00.0000, 2.197727016164342E+08, 2.960134780309072E+08, 1.785453609709702E+07,
2460679.500000000, A.D. 2025-Jan-04 00:00:00.0000, 2.112802506537415E+08, 3.039444595742283E+08, 1.755338055077469E+07,
2460686.500000000, A.D. 2025-Jan-11 00:00:00.0000, 2.025862127033010E+08, 3.115856867735245E+08, 1.723546965029664E+07,
2460693.500000000, A.D. 2025-Jan-18 00:00:00.0000, 1.937011683495356E+08, 3.189333927536372E+08, 1.690130085019387E+07,
2460700.500000000, A.D. 2025-Jan-25 00:00:00.0000, 1.846356495401860E+08, 3.259842063768373E+08, 1.655137689878945E+07,
2460707.500000000, A.D. 2025-Feb-01 00:00:00.0000, 1.754001261931062E+08, 3.327351396369780E+08, 1.618620487948756E+07,
2460714.500000000, A.D. 2025-Feb-08 00:00:00.0000, 1.660049938891252E+08, 3.391835748083442E+08, 1.580629530622791E+07,
$$EOE